{"type": "FeatureCollection", "features": [ {"type": "Feature", "properties": {"norad_id": 66908, "name": "1998-067XU", "group": "last-30-days", "lat": 43.43838167633009, "lon": 151.0003486149923, "alt_km": 405.80856994697933, "timestamp": "2025-12-20T18:51:30.448253+00:00", "meta": {"OBJECT_NAME": "1998-067XU", "OBJECT_ID": "1998-067XU", "EPOCH": "2025-12-20T13:57:38.963808", "MEAN_MOTION": 15.52465703, "ECCENTRICITY": 0.00039229, "INCLINATION": 51.6312, "RA_OF_ASC_NODE": 103.4063, "ARG_OF_PERICENTER": 272.2862, "MEAN_ANOMALY": 87.7679, "EPHEMERIS_TYPE": 0, "CLASSIFICATION_TYPE": "U", "NORAD_CAT_ID": 66908, "ELEMENT_SET_NO": 999, "REV_AT_EPOCH": 283, "BSTAR": 0.00073917994, "MEAN_MOTION_DOT": 0.00045874, "MEAN_MOTION_DDOT": 0}, "tle": {"line1": "1 66908U 98067XU  25354.58170097  .00045874  00000+0  73918-3 0  9993", "line2": "2 66908  51.6312 103.4063 0003922 272.2862  87.7679 15.52465703  2836"}}, "geometry": {"type": "Point", "coordinates": [151.0003486149923, 43.43838167633009]}}, {"type": "Feature", "properties": {"norad_id": 66909, "name": "SILVERSAT", "group": "last-30-days", "lat": 46.26040274065175, "lon": 158.26402611808751, "alt_km": 405.00281308822105, "timestamp": "2025-12-20T18:51:30.448265+00:00", "meta": {"OBJECT_NAME": "SILVERSAT", "OBJECT_ID": "1998-067XV", "EPOCH": "2025-12-19T13:13:09.424128", "MEAN_MOTION": 15.5251652, "ECCENTRICITY": 0.0003839, "INCLINATION": 51.6306, "RA_OF_ASC_NODE": 108.5226, "ARG_OF_PERICENTER": 268.696, "MEAN_ANOMALY": 91.359, "EPHEMERIS_TYPE": 0, "CLASSIFICATION_TYPE": "U", "NORAD_CAT_ID": 66909, "ELEMENT_SET_NO": 999, "REV_AT_EPOCH": 267, "BSTAR": 0.00079912, "MEAN_MOTION_DOT": 0.00049748, "MEAN_MOTION_DDOT": 0}, "tle": {"line1": "1 66909U 98067XV  25353.55080352  .00049748  00000+0  79912-3 0  9998", "line2": "2 66909  51.6306 108.5226 0003839 268.6960  91.3590 15.52516520  2671"}}, "geometry": {"type": "Point", "coordinates": [158.26402611808751, 46.26040274065175]}}, {"type": "Feature", "properties": {"norad_id": 66910, "name": "1998-067XW", "group": "last-30-days", "lat": 49.84433655136736, "lon": 172.24328819214745, "alt_km": 405.0329783072357, "timestamp": "2025-12-20T18:51:30.448274+00:00", "meta": {"OBJECT_NAME": "1998-067XW", "OBJECT_ID": "1998-067XW", "EPOCH": "2025-12-20T13:53:35.349504", "MEAN_MOTION": 15.52622364, "ECCENTRICITY": 0.00042741, "INCLINATION": 51.6309, "RA_OF_ASC_NODE": 103.387, "ARG_OF_PERICENTER": 249.6033, "MEAN_ANOMALY": 110.4498, "EPHEMERIS_TYPE": 0, "CLASSIFICATION_TYPE": "U", "NORAD_CAT_ID": 66910, "ELEMENT_SET_NO": 999, "REV_AT_EPOCH": 283, "BSTAR": 0.00071890575, "MEAN_MOTION_DOT": 0.00044854, "MEAN_MOTION_DDOT": 0}, "tle": {"line1": "1 66910U 98067XW  25354.57888136  .00044854  00000+0  71891-3 0  9990", "line2": "2 66910  51.6309 103.3870 0004274 249.6033 110.4498 15.52622364  2830"}}, "geometry": {"type": "Point", "coordinates": [172.24328819214745, 49.84433655136736]}}, {"type": "Feature", "properties": {"norad_id": 66911, "name": "1998-067XX", "group": "last-30-days", "lat": 51.59055042703564, "lon": -165.4777059619021, "alt_km": 403.2477549232326, "timestamp": "2025-12-20T18:51:30.448284+00:00", "meta": {"OBJECT_NAME": "1998-067XX", "OBJECT_ID": "1998-067XX", "EPOCH": "2025-12-20T12:17:22.048800", "MEAN_MOTION": 15.53037566, "ECCENTRICITY": 0.00038557, "INCLINATION": 51.631, "RA_OF_ASC_NODE": 103.6915, "ARG_OF_PERICENTER": 259.4504, "MEAN_ANOMALY": 100.6051, "EPHEMERIS_TYPE": 0, "CLASSIFICATION_TYPE": "U", "NORAD_CAT_ID": 66911, "ELEMENT_SET_NO": 999, "REV_AT_EPOCH": 281, "BSTAR": 0.00075761816, "MEAN_MOTION_DOT": 0.00048031, "MEAN_MOTION_DDOT": 0}, "tle": {"line1": "1 66911U 98067XX  25354.51206075  .00048031  00000+0  75762-3 0  9993", "line2": "2 66911  51.6310 103.6915 0003855 259.4504 100.6051 15.53037566  2811"}}, "geometry": {"type": "Point", "coordinates": [-165.4777059619021, 51.59055042703564]}}, {"type": "Feature", "properties": {"norad_id": 66912, "name": "1998-067XY", "group": "last-30-days", "lat": 29.681581778133246, "lon": 129.278787760786, "alt_km": 409.39678114619437, "timestamp": "2025-12-20T18:51:30.448296+00:00", "meta": {"OBJECT_NAME": "1998-067XY", "OBJECT_ID": "1998-067XY", "EPOCH": "2025-12-19T14:52:14.043072", "MEAN_MOTION": 15.51780846, "ECCENTRICITY": 0.0004012, "INCLINATION": 51.6307, "RA_OF_ASC_NODE": 108.231, "ARG_OF_PERICENTER": 260.881, "MEAN_ANOMALY": 99.1725, "EPHEMERIS_TYPE": 0, "CLASSIFICATION_TYPE": "U", "NORAD_CAT_ID": 66912, "ELEMENT_SET_NO": 999, "REV_AT_EPOCH": 267, "BSTAR": 0.00063264, "MEAN_MOTION_DOT": 0.00038197, "MEAN_MOTION_DDOT": 0}, "tle": {"line1": "1 66912U 98067XY  25353.61960698  .00038197  00000+0  63264-3 0  9998", "line2": "2 66912  51.6307 108.2310 0004012 260.8810  99.1725 15.51780846  2678"}}, "geometry": {"type": "Point", "coordinates": [129.278787760786, 29.681581778133246]}}, {"type": "Feature", "properties": {"norad_id": 66913, "name": "2025-284A", "group": "last-30-days", "lat": 60.9979746351849, "lon": 137.35848065346903, "alt_km": 509.34901070608976, "timestamp": "2025-12-20T18:51:30.448306+00:00", "meta": {"OBJECT_NAME": "2025-284A", "OBJECT_ID": "2025-284A", "EPOCH": "2025-12-18T06:24:29.359008", "MEAN_MOTION": 15.16462178, "ECCENTRICITY": 0.00203688, "INCLINATION": 80.4052, "RA_OF_ASC_NODE": 122.7714, "ARG_OF_PERICENTER": 156.4299, "MEAN_ANOMALY": 203.7866, "EPHEMERIS_TYPE": 0, "CLASSIFICATION_TYPE": "U", "NORAD_CAT_ID": 66913, "ELEMENT_SET_NO": 999, "REV_AT_EPOCH": 196, "BSTAR": 0.00046237905, "MEAN_MOTION_DOT": 9.066e-05, "MEAN_MOTION_DDOT": 0}, "tle": {"line1": "1 66913U 25284A   25352.26700647  .00009066  00000+0  46238-3 0  9991", "line2": "2 66913  80.4052 122.7714 0020368 156.4299 203.7866 15.16462178  1964"}}, "geometry": {"type": "Point", "coordinates": [137.35848065346903, 60.9979746351849]}}, {"type": "Feature", "properties": {"norad_id": 66914, "name": "2025-284B", "group": "last-30-days", "lat": 63.6911798949115, "lon": -80.44197543943848, "alt_km": 503.9517391459867, "timestamp": "2025-12-20T18:51:30.448316+00:00", "meta": {"OBJECT_NAME": "2025-284B", "OBJECT_ID": "2025-284B", "EPOCH": "2025-12-16T06:51:11.417184", "MEAN_MOTION": 15.18985981, "ECCENTRICITY": 0.00081793, "INCLINATION": 80.4045, "RA_OF_ASC_NODE": 125.2713, "ARG_OF_PERICENTER": 234.9626, "MEAN_ANOMALY": 125.0834, "EPHEMERIS_TYPE": 0, "CLASSIFICATION_TYPE": "U", "NORAD_CAT_ID": 66914, "ELEMENT_SET_NO": 999, "REV_AT_EPOCH": 166, "BSTAR": 0.00038444995, "MEAN_MOTION_DOT": 8.068e-05, "MEAN_MOTION_DDOT": 0}, "tle": {"line1": "1 66914U 25284B   25350.28554881  .00008068  00000+0  38445-3 0  9991", "line2": "2 66914  80.4045 125.2713 0008179 234.9626 125.0834 15.18985981  1668"}}, "geometry": {"type": "Point", "coordinates": [-80.44197543943848, 63.6911798949115]}}, {"type": "Feature", "properties": {"norad_id": 66915, "name": "HULIANWANG DIGUI-105", "group": "last-30-days", "lat": -10.942613896768908, "lon": -86.15105457246823, "alt_km": 885.2776467015256, "timestamp": "2025-12-20T18:51:30.448328+00:00", "meta": {"OBJECT_NAME": "HULIANWANG DIGUI-105", "OBJECT_ID": "2025-285A", "EPOCH": "2025-12-20T14:31:08.234688", "MEAN_MOTION": 14.03717881, "ECCENTRICITY": 0.00080436, "INCLINATION": 50.0049, "RA_OF_ASC_NODE": 85.2447, "ARG_OF_PERICENTER": 308.9722, "MEAN_ANOMALY": 51.0466, "EPHEMERIS_TYPE": 0, "CLASSIFICATION_TYPE": "U", "NORAD_CAT_ID": 66915, "ELEMENT_SET_NO": 999, "REV_AT_EPOCH": 201, "BSTAR": 9.5962869e-05, "MEAN_MOTION_DOT": 0, "MEAN_MOTION_DDOT": 0}, "tle": {"line1": "1 66915U 25285A   25354.60495642  .00000000  00000+0  95963-4 0  9999", "line2": "2 66915  50.0049  85.2447 0008043 308.9722  51.0466 14.03717881  2018"}}, "geometry": {"type": "Point", "coordinates": [-86.15105457246823, -10.942613896768908]}}, {"type": "Feature", "properties": {"norad_id": 66916, "name": "HULIANWANG DIGUI-106", "group": "last-30-days", "lat": -21.80517903696253, "lon": -75.89359787616884, "alt_km": 884.216979474204, "timestamp": "2025-12-20T18:51:30.448351+00:00", "meta": {"OBJECT_NAME": "HULIANWANG DIGUI-106", "OBJECT_ID": "2025-285B", "EPOCH": "2025-12-20T14:26:57.624576", "MEAN_MOTION": 14.03702784, "ECCENTRICITY": 0.00068232, "INCLINATION": 50.006, "RA_OF_ASC_NODE": 85.2309, "ARG_OF_PERICENTER": 302.1743, "MEAN_ANOMALY": 57.8499, "EPHEMERIS_TYPE": 0, "CLASSIFICATION_TYPE": "U", "NORAD_CAT_ID": 66916, "ELEMENT_SET_NO": 999, "REV_AT_EPOCH": 201, "BSTAR": 9.2036565e-05, "MEAN_MOTION_DOT": -6e-08, "MEAN_MOTION_DDOT": 0}, "tle": {"line1": "1 66916U 25285B   25354.60205584 -.00000006  00000+0  92037-4 0  9990", "line2": "2 66916  50.0060  85.2309 0006823 302.1743  57.8499 14.03702784  2018"}}, "geometry": {"type": "Point", "coordinates": [-75.89359787616884, -21.80517903696253]}}, {"type": "Feature", "properties": {"norad_id": 66917, "name": "HULIANWANG DIGUI-107", "group": "last-30-days", "lat": -28.35857297036658, "lon": -68.59457140490811, "alt_km": 884.9161657084251, "timestamp": "2025-12-20T18:51:30.448361+00:00", "meta": {"OBJECT_NAME": "HULIANWANG DIGUI-107", "OBJECT_ID": "2025-285C", "EPOCH": "2025-12-20T14:24:17.722368", "MEAN_MOTION": 14.0366284, "ECCENTRICITY": 0.00074812, "INCLINATION": 50.0025, "RA_OF_ASC_NODE": 85.2147, "ARG_OF_PERICENTER": 311.7188, "MEAN_ANOMALY": 48.3076, "EPHEMERIS_TYPE": 0, "CLASSIFICATION_TYPE": "U", "NORAD_CAT_ID": 66917, "ELEMENT_SET_NO": 999, "REV_AT_EPOCH": 201, "BSTAR": 9.2133031e-05, "MEAN_MOTION_DOT": -6e-08, "MEAN_MOTION_DDOT": 0}, "tle": {"line1": "1 66917U 25285C   25354.60020512 -.00000006  00000+0  92133-4 0  9994", "line2": "2 66917  50.0025  85.2147 0007481 311.7188  48.3076 14.03662840  2014"}}, "geometry": {"type": "Point", "coordinates": [-68.59457140490811, -28.35857297036658]}}]}